0 FENGYUN 1C DEB
1 36135U 99025DRG 13284.05736123  .00011430  00000-0  33985-2 0  2822
2 36135 098.9442 017.6576 0070431 043.6729 317.0002 14.41899890245988
0 FENGYUN 1C DEB
1 36135U 99025DRG 13285.51458298  .00009501  00000-0  28270-2 0  2836
2 36135 098.9456 019.1831 0070344 039.1092 321.5151 14.41924550246191
0 FENGYUN 1C DEB
1 36135U 99025DRG 13286.48604984  .00009025  00000-0  26858-2 0  2840
2 36135 098.9460 020.2009 0070234 036.1085 324.4816 14.41939815246339
0 FENGYUN 1C DEB
1 36135U 99025DRG 13289.05343503  .00013657  00000-0  40498-2 0  2856
2 36135 098.9467 022.8907 0070001 028.1981 332.2970 14.41997680246702
0 FENGYUN 1C DEB
1 36135U 99025DRG 13291.06563488  .00012050  00000-0  35734-2 0  2860
2 36135 098.9468 024.9993 0069769 021.8541 338.5598 14.42041587246995
0 FENGYUN 1C DEB
1 36135U 99025DRG 13292.45332457  .00011472  00000-0  34013-2 0  2871
2 36135 098.9448 026.4556 0069642 017.6357 342.7225 14.42067190247198
0 FENGYUN 1C DEB
1 36135U 99025DRG 13295.02047880  .00012851  00000-0  38045-2 0  2882
2 36135 098.9466 029.1420 0069521 009.5494 350.6997 14.42114958247566
0 FENGYUN 1C DEB
1 36135U 99025DRG 13296.06119287  .00013692  00000-0  40498-2 0  2898
2 36135 098.9453 030.2338 0069561 006.3697 353.8360 14.42139846247716
